{"type": "FeatureCollection", "features": [ {"type": "Feature", "properties": {"norad_id": 40664, "name": "SKY MEXICO-1", "group": "intelsat", "lat": 0.02381537274541546, "lon": 2.6302437941828893, "alt_km": 35784.329300683574, "timestamp": "2025-12-17T23:38:06.530662+00:00", "meta": {"OBJECT_NAME": "SKY MEXICO-1", "OBJECT_ID": "2015-026B", "EPOCH": "2025-12-17T12:57:02.202048", "MEAN_MOTION": 1.00271164, "ECCENTRICITY": 0.00024005, "INCLINATION": 0.0165, "RA_OF_ASC_NODE": 308.8091, "ARG_OF_PERICENTER": 335.1498, "MEAN_ANOMALY": 277.9505, "EPHEMERIS_TYPE": 0, "CLASSIFICATION_TYPE": "U", "NORAD_CAT_ID": 40664, "ELEMENT_SET_NO": 999, "REV_AT_EPOCH": 3863, "BSTAR": 0, "MEAN_MOTION_DOT": -2.1e-06, "MEAN_MOTION_DDOT": 0}, "tle": {"line1": "1 40664U 15026B   25351.53960882 -.00000210  00000+0  00000+0 0  9993", "line2": "2 40664   0.0165 308.8091 0002400 335.1498 277.9505  1.00271164 38639"}}, "geometry": {"type": "Point", "coordinates": [2.6302437941828893, 0.02381537274541546]}}, {"type": "Feature", "properties": {"norad_id": 40874, "name": "INTELSAT 34 (IS-34)", "group": "intelsat", "lat": 0.028572470476493732, "lon": 25.85826906325482, "alt_km": 35787.77624769473, "timestamp": "2025-12-17T23:38:06.530674+00:00", "meta": {"OBJECT_NAME": "INTELSAT 34 (IS-34)", "OBJECT_ID": "2015-039A", "EPOCH": "2025-12-17T13:03:46.556640", "MEAN_MOTION": 1.00270274, "ECCENTRICITY": 6.422e-05, "INCLINATION": 0.0109, "RA_OF_ASC_NODE": 319.8418, "ARG_OF_PERICENTER": 183.1904, "MEAN_ANOMALY": 83.8297, "EPHEMERIS_TYPE": 0, "CLASSIFICATION_TYPE": "U", "NORAD_CAT_ID": 40874, "ELEMENT_SET_NO": 999, "REV_AT_EPOCH": 3780, "BSTAR": 0, "MEAN_MOTION_DOT": -2.61e-06, "MEAN_MOTION_DDOT": 0}, "tle": {"line1": "1 40874U 15039A   25351.54428885 -.00000261  00000+0  00000+0 0  9999", "line2": "2 40874   0.0109 319.8418 0000642 183.1904  83.8297  1.00270274 37805"}}, "geometry": {"type": "Point", "coordinates": [25.85826906325482, 0.028572470476493732]}}, {"type": "Feature", "properties": {"norad_id": 41581, "name": "INTELSAT 31 (IS-31)", "group": "intelsat", "lat": 0.01739372365578248, "lon": -13.659542526742051, "alt_km": 35791.51077786327, "timestamp": "2025-12-17T23:38:06.530685+00:00", "meta": {"OBJECT_NAME": "INTELSAT 31 (IS-31)", "OBJECT_ID": "2016-035A", "EPOCH": "2025-12-17T09:27:00.770688", "MEAN_MOTION": 1.00274449, "ECCENTRICITY": 0.00019987, "INCLINATION": 0.0203, "RA_OF_ASC_NODE": 273.7314, "ARG_OF_PERICENTER": 295.2783, "MEAN_ANOMALY": 283.9649, "EPHEMERIS_TYPE": 0, "CLASSIFICATION_TYPE": "U", "NORAD_CAT_ID": 41581, "ELEMENT_SET_NO": 999, "REV_AT_EPOCH": 3486, "BSTAR": 0, "MEAN_MOTION_DOT": -1.27e-06, "MEAN_MOTION_DDOT": 0}, "tle": {"line1": "1 41581U 16035A   25351.39375892 -.00000127  00000+0  00000+0 0  9995", "line2": "2 41581   0.0203 273.7314 0001998 295.2783 283.9649  1.00274449 34869"}}, "geometry": {"type": "Point", "coordinates": [-13.659542526742051, 0.01739372365578248]}}, {"type": "Feature", "properties": {"norad_id": 41747, "name": "INTELSAT 36 (IS-36)", "group": "intelsat", "lat": 0.017130903106796647, "lon": 149.8512721205694, "alt_km": 35791.22697491895, "timestamp": "2025-12-17T23:38:06.530697+00:00", "meta": {"OBJECT_NAME": "INTELSAT 36 (IS-36)", "OBJECT_ID": "2016-053A", "EPOCH": "2025-12-17T13:39:05.673888", "MEAN_MOTION": 1.00271192, "ECCENTRICITY": 0.00011892, "INCLINATION": 0.0124, "RA_OF_ASC_NODE": 7.0613, "ARG_OF_PERICENTER": 323.7892, "MEAN_ANOMALY": 28.8497, "EPHEMERIS_TYPE": 0, "CLASSIFICATION_TYPE": "U", "NORAD_CAT_ID": 41747, "ELEMENT_SET_NO": 999, "REV_AT_EPOCH": 3412, "BSTAR": 0, "MEAN_MOTION_DOT": 1e-08, "MEAN_MOTION_DDOT": 0}, "tle": {"line1": "1 41747U 16053A   25351.56881567  .00000001  00000+0  00000+0 0  9999", "line2": "2 41747   0.0124   7.0613 0001189 323.7892  28.8497  1.00271192 34123"}}, "geometry": {"type": "Point", "coordinates": [149.8512721205694, 0.017130903106796647]}}, {"type": "Feature", "properties": {"norad_id": 41945, "name": "INTELSAT 32E (IS-32E)", "group": "intelsat", "lat": 0.003921112178169416, "lon": 38.19582722630448, "alt_km": 35783.90751230795, "timestamp": "2025-12-17T23:38:06.530709+00:00", "meta": {"OBJECT_NAME": "INTELSAT 32E (IS-32E)", "OBJECT_ID": "2017-007B", "EPOCH": "2025-12-17T09:41:44.361024", "MEAN_MOTION": 1.00270476, "ECCENTRICITY": 6.207e-05, "INCLINATION": 0.028, "RA_OF_ASC_NODE": 69.679, "ARG_OF_PERICENTER": 323.1831, "MEAN_ANOMALY": 155.683, "EPHEMERIS_TYPE": 0, "CLASSIFICATION_TYPE": "U", "NORAD_CAT_ID": 41945, "ELEMENT_SET_NO": 999, "REV_AT_EPOCH": 3240, "BSTAR": 0, "MEAN_MOTION_DOT": -2.44e-06, "MEAN_MOTION_DDOT": 0}, "tle": {"line1": "1 41945U 17007B   25351.40398566 -.00000244  00000+0  00000+0 0  9994", "line2": "2 41945   0.0280  69.6790 0000620 323.1831 155.6830  1.00270476 32405"}}, "geometry": {"type": "Point", "coordinates": [38.19582722630448, 0.003921112178169416]}}, {"type": "Feature", "properties": {"norad_id": 42818, "name": "INTELSAT 35E (IS-35E)", "group": "intelsat", "lat": 0.03771191094822743, "lon": 46.882840258317835, "alt_km": 35792.32435057301, "timestamp": "2025-12-17T23:38:06.530720+00:00", "meta": {"OBJECT_NAME": "INTELSAT 35E (IS-35E)", "OBJECT_ID": "2017-041A", "EPOCH": "2025-12-17T09:44:14.121600", "MEAN_MOTION": 1.00270102, "ECCENTRICITY": 0.00018428, "INCLINATION": 0.0258, "RA_OF_ASC_NODE": 6.5614, "ARG_OF_PERICENTER": 263.2189, "MEAN_ANOMALY": 288.0645, "EPHEMERIS_TYPE": 0, "CLASSIFICATION_TYPE": "U", "NORAD_CAT_ID": 42818, "ELEMENT_SET_NO": 999, "REV_AT_EPOCH": 3099, "BSTAR": 0, "MEAN_MOTION_DOT": 0, "MEAN_MOTION_DDOT": 0}, "tle": {"line1": "1 42818U 17041A   25351.40571900  .00000000  00000+0  00000+0 0  9996", "line2": "2 42818   0.0258   6.5614 0001842 263.2189 288.0645  1.00270102 30995"}}, "geometry": {"type": "Point", "coordinates": [46.882840258317835, 0.03771191094822743]}}, {"type": "Feature", "properties": {"norad_id": 42950, "name": "INTELSAT 37E (IS-37E)", "group": "intelsat", "lat": 0.039646534310772884, "lon": 63.37667526939917, "alt_km": 35798.386634695875, "timestamp": "2025-12-17T23:38:06.530731+00:00", "meta": {"OBJECT_NAME": "INTELSAT 37E (IS-37E)", "OBJECT_ID": "2017-059A", "EPOCH": "2025-12-17T09:48:58.667904", "MEAN_MOTION": 1.0027127, "ECCENTRICITY": 0.00029563, "INCLINATION": 0.0142, "RA_OF_ASC_NODE": 332.1274, "ARG_OF_PERICENTER": 285.3913, "MEAN_ANOMALY": 318.0124, "EPHEMERIS_TYPE": 0, "CLASSIFICATION_TYPE": "U", "NORAD_CAT_ID": 42950, "ELEMENT_SET_NO": 999, "REV_AT_EPOCH": 3024, "BSTAR": 0, "MEAN_MOTION_DOT": -1.16e-06, "MEAN_MOTION_DDOT": 0}, "tle": {"line1": "1 42950U 17059A   25351.40901236 -.00000116  00000+0  00000+0 0  9990", "line2": "2 42950   0.0142 332.1274 0002956 285.3913 318.0124  1.00271270 30242"}}, "geometry": {"type": "Point", "coordinates": [63.37667526939917, 0.039646534310772884]}}, {"type": "Feature", "properties": {"norad_id": 43632, "name": "AZERSPACE 2 (IS-38)", "group": "intelsat", "lat": 0.027335694267391537, "lon": 126.47546858529488, "alt_km": 35790.12892439839, "timestamp": "2025-12-17T23:38:06.530743+00:00", "meta": {"OBJECT_NAME": "AZERSPACE 2 (IS-38)", "OBJECT_ID": "2018-074A", "EPOCH": "2025-12-17T13:32:28.807584", "MEAN_MOTION": 1.00272158, "ECCENTRICITY": 0.00011912, "INCLINATION": 0.0178, "RA_OF_ASC_NODE": 345.1329, "ARG_OF_PERICENTER": 287.8955, "MEAN_ANOMALY": 61.6442, "EPHEMERIS_TYPE": 0, "CLASSIFICATION_TYPE": "U", "NORAD_CAT_ID": 43632, "ELEMENT_SET_NO": 999, "REV_AT_EPOCH": 2662, "BSTAR": 0, "MEAN_MOTION_DOT": 1.61e-06, "MEAN_MOTION_DDOT": 0}, "tle": {"line1": "1 43632U 18074A   25351.56422231  .00000161  00000+0  00000+0 0  9995", "line2": "2 43632   0.0178 345.1329 0001191 287.8955  61.6442  1.00272158 26624"}}, "geometry": {"type": "Point", "coordinates": [126.47546858529488, 0.027335694267391537]}}, {"type": "Feature", "properties": {"norad_id": 43633, "name": "HORIZONS-3E", "group": "intelsat", "lat": -0.01162217096690426, "lon": -109.66505541157261, "alt_km": 35784.3194497938, "timestamp": "2025-12-17T23:38:06.530755+00:00", "meta": {"OBJECT_NAME": "HORIZONS-3E", "OBJECT_ID": "2018-074B", "EPOCH": "2025-12-16T14:09:40.218048", "MEAN_MOTION": 1.00269891, "ECCENTRICITY": 8.37e-05, "INCLINATION": 0.0492, "RA_OF_ASC_NODE": 188.1186, "ARG_OF_PERICENTER": 112.8726, "MEAN_ANOMALY": 165.8874, "EPHEMERIS_TYPE": 0, "CLASSIFICATION_TYPE": "U", "NORAD_CAT_ID": 43633, "ELEMENT_SET_NO": 999, "REV_AT_EPOCH": 2651, "BSTAR": 0, "MEAN_MOTION_DOT": -7e-08, "MEAN_MOTION_DDOT": 0}, "tle": {"line1": "1 43633U 18074B   25350.59004882 -.00000007  00000+0  00000+0 0  9996", "line2": "2 43633   0.0492 188.1186 0000837 112.8726 165.8874  1.00269891 26513"}}, "geometry": {"type": "Point", "coordinates": [-109.66505541157261, -0.01162217096690426]}}, {"type": "Feature", "properties": {"norad_id": 44333, "name": "AT&T T-16", "group": "intelsat", "lat": -0.021741618774581393, "lon": -19.50324787019656, "alt_km": 35789.57995162918, "timestamp": "2025-12-17T23:38:06.530767+00:00", "meta": {"OBJECT_NAME": "AT&T T-16", "OBJECT_ID": "2019-034A", "EPOCH": "2025-12-17T12:58:57.989280", "MEAN_MOTION": 1.00269579, "ECCENTRICITY": 7.793e-05, "INCLINATION": 0.0246, "RA_OF_ASC_NODE": 64.4648, "ARG_OF_PERICENTER": 67.2043, "MEAN_ANOMALY": 48.6243, "EPHEMERIS_TYPE": 0, "CLASSIFICATION_TYPE": "U", "NORAD_CAT_ID": 44333, "ELEMENT_SET_NO": 999, "REV_AT_EPOCH": 2381, "BSTAR": 0, "MEAN_MOTION_DOT": -9e-07, "MEAN_MOTION_DDOT": 0}, "tle": {"line1": "1 44333U 19034A   25351.54094895 -.00000090  00000+0  00000+0 0  9992", "line2": "2 44333   0.0246  64.4648 0000779  67.2043  48.6243  1.00269579 23818"}}, "geometry": {"type": "Point", "coordinates": [-19.50324787019656, -0.021741618774581393]}}]}